Satellite: OBJECTE
Catalog number: 35005
Epoch time:      09147.95785392
Element set:    0023
Inclination:      040.4764 deg
RA of node:       001.5621 deg
Eccentricity:    0.0028052
Arg of perigee:   013.1386 deg
Mean anomaly:     347.0155 deg
Mean motion:   15.39716393 rev/day
Decay rate:      3.054e-05 rev/day^2
Epoch rev:           00122
Checksum:              263

/EX




From r.hoad at att.net  Thu May 28 19:57:54 2009
From: r.hoad at att.net (Ray Hoad)
Date: Thu, 28 May 2009 21:57:54 -0500
Subject: [keps]  orb09148.2l.amsat
Message-ID: <4A1F4F32.8070803@att.net>

SB KEPS @ AMSAT  $ORB09148.N
2Line Orbital Elements 09148.AMSAT

HR AMSAT ORBITAL ELEMENTS FOR AMATEUR SATELLITES IN NASA FORMAT
FROM WA5QGD FORT WORTH,TX May 28, 2009
Send Subscribe/unsubscribe to KEPS at 
http://www.amsat.org/mailman/listinfo/keps
BID: ORB09148.N

DECODE 2-LINE ELSETS WITH THE FOLLOWING KEY:
1 AAAAAU 00  0  0 BBBBB.BBBBBBBB  .CCCCCCCC  00000-0  00000-0 0  DDDZ
2 AAAAA EEE.EEEE FFF.FFFF GGGGGGG HHH.HHHH III.IIII JJ.JJJJJJJJKKKKKZ
KEY: A-CATALOGNUM B-EPOCHTIME C-DECAY D-ELSETNUM E-INCLINATION F-RAAN
G-ECCENTRICITY H-ARGPERIGEE I-MNANOM J-MNMOTION K-ORBITNUM Z-CHECKSUM

TO ALL RADIO AMATEURS BT

AO-07
1 07530U 74089B   09148.53617437 -.00000027  00000-0  10000-3 0  4899
2 07530 101.4283 173.9340 0011645 307.9840 052.0181 12.53575783580254
FO-29
1 24278U 96046B   09148.77582746 -.00000069  00000-0 -35748-4 0   524
2 24278 098.5567 025.4201 0351199 040.7903 321.8972 13.52943919631121
SO-33
1 25509U 98061B   09147.43646910  .00000223  00000-0  31563-4 0 04634
2 25509 031.4292 169.8365 0354444 157.1774 204.5057 14.28252896552864
RS-22
1 27939U 03042A   09147.82169533  .00000088  00000-0  25887-4 0 08019
2 27939 097.9483 023.4312 0013122 192.6820 167.4068 14.63318634302594
VO-52
1 28650U 05017B   09148.59901282  .00000110  00000-0  20498-4 0  2343
2 28650 097.7438 210.8267 0028469 093.9376 266.5117 14.81587587219748
AO-16
1 20439U 90005D   09148.49751321 -.00000000  00000-0  15350-4 0  6149
2 20439 098.2771 117.7977 0010081 227.2315 132.8036 14.31824811 10338
LO-19
1 20442U 90005G   09147.85901474  .00000073  00000-0  42311-4 0 05356
2 20442 098.2401 124.5297 0011201 224.4779 135.5512 14.32060984010402
AO-27
1 22825U 93061C   09147.84386774 -.00000077  00000-0 -13592-4 0  2528
2 22825 098.4356 101.9100 0007831 330.1207 029.9534 14.29265704817001
IO-26
1 22826U 93061D   09148.74756913 -.00000032  00000-0  38880-5 0  9799
2 22826 098.4286 103.5414 0008516 323.3601 036.6994 14.29517667817231
GO-32
1 25397U 98043D   09147.89468389 -.00000002  00000-0  16959-4 0 09050
2 25397 098.3270 171.3216 0000673 008.8446 351.2753 14.23159072565246
NO-44
1 26931U 01043C   09147.85534379 -.00000113  00000-0 -11684-4 0 01807
2 26931 067.0499 116.7234 0005586 269.9025 090.1457 14.29556651399673
SO-50
1 27607U 02058C   09147.59478743 -.00000035  00000-0  16630-4 0 08960
2 27607 064.5585 087.6310 0069493 210.4468 149.2594 14.71437992345641
CO-55
1 27844U 03031E   09148.55334815  .00000062  00000-0  49279-4 0  5885
2 27844 098.7120 157.9963 0009331 196.2101 163.8792 14.20639502306478
CO-57
1 27848U 03031J   09148.59858223  .00000037  00000-0  37423-4 0  5359
2 27848 098.7147 157.1029 0009057 201.0379 159.0421 14.20441144306449
AO-51
1 28375U 04025K   09147.54490995  .00000014  00000-0  16710-4 0 04003
2 28375 098.0524 158.3527 0083120 187.3150 172.6833 14.40642876257988
CO-56
1 28941U 06005C   09148.62841827  .00048844  34419-5  17919-3 0  1137
2 28941 098.1360 319.4251 0091637 205.8565 153.8104 15.81975844184158
GENESAT1
1 29655U 06058C   09148.79088201  .00009702  00000-0  97729-4 0  7199
2 29655 040.0269 304.8202 0002789 310.6438 049.4135 15.65247260139434
CP3
1 31129U 07012N   09148.74104410  .00000150  00000-0  45421-4 0  9579
2 31129 097.9902 202.7471 0102521 346.1342 013.7044 14.52133427112062
CO-65
1 32785U 08021C   09147.25493757 -.00000095  00000-0 -52980-5 0 03842
2 32785 097.9460 211.3929 0016211 099.4189 260.8857 14.81483071058343
KKS-1
1 33493U 09002B   09148.83952210  .00000245  00000-0  38873-4 0  4220
2 33493 098.0557 260.9659 0019152 307.0811 052.8652 14.80673217 18605
SOHLA-1
1 33496U 09002E   09148.77553212  .00000001  00000-0  83408-5 0  3836
2 33496 098.0367 258.3877 0006683 356.5561 003.5601 14.69434427 18428
NOAA-10
1 16969U 86073A   09147.61846828 -.00000030  00000-0  58379-5 0 06289
2 16969 098.6913 174.3771 0011402 257.2651 102.7272 14.27387012180572
NOAA-11
1 19531U 88089A   09147.77040448 -.00000151  00000-0 -55705-4 0 06393
2 19531 098.7848 238.0380 0011819 163.1883 196.9677 14.14895622066637
NOAA-12
1 21263U 91032A   09147.96380335  .00000032  00000-0  32527-4 0 01504
2 21263 098.7703 156.0161 0011912 200.7946 159.2750 14.25580181937511
MET-3/5
1 21655U 91056A   09147.94144545  .00000051  00000-0  10000-3 0 06242
2 21655 082.5510 220.7927 0012304 229.7214 130.2834 13.17018827854969
MET-2/21
1 22782U 93055A   09147.71434408  .00000097  00000-0  74092-4 0 04699
2 22782 082.5484 198.2460 0023612 047.2233 313.0907 13.83636032794771
OKEAN-4
1 23317U 94066A   09148.73119311  .00000059  00000-0  42628-5 0  9204
2 23317 082.5391 352.6461 0023883 069.8335 290.5447 14.82698488789486
NOAA-14
1 23455U 94089A   09147.92970830 -.00000279  00000-0 -12366-3 0 06334
2 23455 098.9099 225.6788 0008610 246.0397 113.9881 14.13760667743061
NOAA-15
1 25338U 98030A   09147.82761838 -.00000065  00000-0 -95925-5 0 09410
2 25338 098.5832 137.4832 0011623 115.1659 245.0718 14.24761337573872
RESURS
1 25394U 98043A   09148.69929616  .00000009  00000-0  21654-4 0  2238
2 25394 098.3410 182.0374 0000729 308.2574 051.8539 14.24183499565622
FENGYUN1
1 25730U 99025A   09147.95745682 -.00000443  00000-0 -23514-3 0 07695
2 25730 098.7550 118.7293 0020338 280.7987 079.0891 14.07942517517479
OKEAN-0
1 25860U 99039A   09148.47954492  .00000014  00000-0  93698-5 0  6887
2 25860 097.7847 130.4451 0000618 097.6857 262.4417 14.73574256530244
NOAA-16
1 26536U 00055A   09147.82119579 -.00000096  00000-0 -26554-4 0 04184
2 26536 099.1759 150.9956 0010335 343.7081 016.3739 14.12519231447426
NOAA-17
1 27453U 02032A   09147.90580379  .00000191  00000-0  10151-3 0 04289
2 27453 098.4854 207.6725 0011791 178.1965 181.9245 14.24066350359868
NOAA-18
1 28654U 05018A   09147.91212219  .00000090  00000-0  74020-4 0 09151
2 28654 098.9069 091.3093 0015237 062.4701 297.8059 14.11259230207097
NOAA-19
1 33591U 09005A   09147.95864313  .00000125  00000-0  93422-4 0 01191
2 33591 098.7468 094.2480 0013342 303.6393 056.3494 14.10960985015585
HUBBLE
1 20580U 90037B   09146.50056831  .00000955  00000-0  60572-4 0 03999
2 20580 028.4723 243.8310 0003727 053.1583 306.8828 15.00807874846595
ISS
1 25544U 98067A   09148.74472752  .00012364  00000-0  92306-4 0  9349
2 25544 051.6417 046.6567 0009647 053.6815 000.1616 15.73143893602897
CO-58
1 28895U 05043F   09147.70624514  .00000146  00000-0  40081-4 0  3121
2 28895 098.0640 038.8945 0019091 053.8823 306.4159 14.59770136190749
FALCON
1 30776U 07006E   09147.64258132  .00000282  00000-0  23426-4 0 05841
2 30776 035.4341 224.0584 0000742 029.2482 330.8275 15.03245789122007
MAST
1 31126U 07012K   09148.69041334 -.00000192  00000-0 -32647-4 0  6060
2 31126 097.9887 204.3859 0094681 341.1877 018.5812 14.53496368112203
CAPE1
1 31130U 07012P   09148.64107794  .00000111  00000-0  36549-4 0  6102
2 31130 097.9930 202.5700 0102041 346.7853 013.0663 14.52059356111852
COMPASS
1 32787U 08021E   09147.30101792  .00000377  00000-0  54593-4 0 03690
2 32787 097.9416 211.2999 0016984 099.3982 260.9160 14.81604570058357
AAUSAT2
1 32788U 08021F   09148.75628621  .00000362  00000-0  52549-4 0  3699
2 32788 097.9405 212.7967 0016827 096.3165 263.9963 14.81727485 58572
DO-64
1 32789U 08021G   09147.69723374  .00000524  00000-0  73109-4 0 03799
2 32789 097.9484 211.8972 0016855 097.1485 263.1627 14.81706782058410
CO-66
1 32791U 08021J   09147.20637106  .00000268  00000-0  40924-4 0 03655
2 32791 097.9455 211.2385 0017146 096.2689 264.0467 14.81434310058308
RS-30
1 32953U 08025A   09148.79174149  .00000010  00000-0  00000 0 0  3153
2 32953 082.5002 268.6707 0018475 218.1318 141.8454 12.43001279 45988
OBJECTA
1 35001U 09028A   09148.61177061  .00000001  00000-0  32476-7 0   125
2 35001 040.4573 357.7111 0024469 012.6652 347.5288 15.38752457  1337
OBJECTB
1 35002U 09028B   09147.95872341  .00001260  00000-0  36959-4 0 00153
2 35002 040.4707 001.5554 0027307 012.3087 347.8394 15.39532209001226
OBJECTC
1 35003U 09028C   09148.67075833  .00001633  00000-0  39473-4 0   131
2 35003 040.4712 357.2719 0029455 020.3967 339.8533 15.39805150  1335
OBJECTD
1 35004U 09028D   09148.79992525  .00003280  00000-0  85227-4 0    83
2 35004 040.4633 356.4833 0029153 021.7957 338.4090 15.39915758  1356
OBJECTE
1 35005U 09028E   09147.95785392  .00003054  00000-0  80382-4 0 00236
2 35005 040.4764 001.5621 0028052 013.1386 347.0155 15.39716393001221
/EX





From r.hoad at att.net  Thu Jun  4 20:06:21 2009
From: r.hoad at att.net (Ray Hoad)
Date: Thu, 04 Jun 2009 22:06:21 -0500
Subject: [keps]  Objects A - E Renamed in AMSAT KEPs
Message-ID: <4A288BAD.2040507@att.net>

The Objects associated with the 5-19-2009 launch have been identified 
and are renamed as follows this week's AMSAT KEPs:
Object A - TACSAT-3 - CAT# 35001
Object B - PHARMSAT - CAT# 35002
Object C - HAWKSAT1 - CAT# 35003
Object D - CP6 - CAT# 35004
Object E - AEROCUB3 - CAT# 35005

Thanks to all who sent in comments and indentifications over the last 
three weeks.





From r.hoad at att.net  Thu Jun  4 20:07:49 2009
From: r.hoad at att.net (Ray Hoad)
Date: Thu, 04 Jun 2009 22:07:49 -0500
Subject: [keps]  orb09155.amsat
Message-ID: <4A288C05.2030808@att.net>

SB KEPS @ AMSAT  $ORB09155.O
Orbital Elements  09155.OSCAR

HR AMSAT ORBITAL ELEMENTS FOR OSCAR SATELLITES
FROM WA5QGD FORT WORTH,TX June 4, 2009
Send Subscribe/unsubscribe to KEPS at 
http://www.amsat.org/mailman/listinfo/keps
BID: ORB09155.O
TO ALL RADIO AMATEURS BT

